{
  "type": "FeatureCollection",
  "name": "India_Watershed_Drainage_Network_Sample",
  "crs": { "type": "name", "properties": { "name": "urn:ogc:def:crs:OGC:1.3:CRS84" } },
  "features": [
    {
      "type": "Feature",
      "id": "STR-01",
      "properties": {
        "id": "STR-01",
        "name": "Kukadi Tributary Stream (Main Stem)",
        "watershed_id": "WS-MH-GOD-01",
        "order": 3,
        "type": "Ephemeral Stream",
        "length_km": 14.6,
        "structures_count": 8
      },
      "geometry": {
        "type": "LineString",
        "coordinates": [
          [74.34, 19.04],
          [74.39, 19.01],
          [74.44, 18.97],
          [74.49, 18.92],
          [74.54, 18.89]
        ]
      }
    },
    {
      "type": "Feature",
      "id": "STR-02",
      "properties": {
        "id": "STR-02",
        "name": "Ralegan Ridge Feeder Stream A",
        "watershed_id": "WS-MH-GOD-01",
        "order": 1,
        "type": "Ridge Torrent / 1st Order",
        "length_km": 5.2,
        "structures_count": 4
      },
      "geometry": {
        "type": "LineString",
        "coordinates": [
          [74.42, 19.07],
          [74.43, 19.04],
          [74.44, 18.97]
        ]
      }
    },
    {
      "type": "Feature",
      "id": "STR-03",
      "properties": {
        "id": "STR-03",
        "name": "Betwa Inter-basin Stream Channel",
        "watershed_id": "WS-MP-BTW-02",
        "order": 4,
        "type": "Perennial River Branch",
        "length_km": 32.4,
        "structures_count": 12
      },
      "geometry": {
        "type": "LineString",
        "coordinates": [
          [78.48, 25.15],
          [78.65, 25.10],
          [78.80, 24.95],
          [78.95, 24.80],
          [79.02, 24.72]
        ]
      }
    },
    {
      "type": "Feature",
      "id": "STR-04",
      "properties": {
        "id": "STR-04",
        "name": "Dhasan Ravine Tributary",
        "watershed_id": "WS-MP-BTW-02",
        "order": 2,
        "type": "Gully Drainage Stream",
        "length_km": 11.8,
        "structures_count": 6
      },
      "geometry": {
        "type": "LineString",
        "coordinates": [
          [78.60, 24.78],
          [78.72, 24.88],
          [78.80, 24.95]
        ]
      }
    },
    {
      "type": "Feature",
      "id": "STR-05",
      "properties": {
        "id": "STR-05",
        "name": "Chitravathi Feeder Drainage Line",
        "watershed_id": "WS-AP-PNR-03",
        "order": 3,
        "type": "Seasonal Torrent",
        "length_km": 21.5,
        "structures_count": 9
      },
      "geometry": {
        "type": "LineString",
        "coordinates": [
          [77.45, 14.60],
          [77.58, 14.50],
          [77.70, 14.38],
          [77.82, 14.24]
        ]
      }
    },
    {
      "type": "Feature",
      "id": "STR-06",
      "properties": {
        "id": "STR-06",
        "name": "Shimsha Tributary Network",
        "watershed_id": "WS-KA-CAU-04",
        "order": 3,
        "type": "Perennial Drainage Branch",
        "length_km": 28.0,
        "structures_count": 10
      },
      "geometry": {
        "type": "LineString",
        "coordinates": [
          [76.90, 12.90],
          [77.05, 12.78],
          [77.18, 12.65],
          [77.26, 12.48]
        ]
      }
    },
    {
      "type": "Feature",
      "id": "STR-07",
      "properties": {
        "id": "STR-07",
        "name": "Chambal Ravine Major Gullies",
        "watershed_id": "WS-RJ-CHM-07",
        "order": 2,
        "type": "Deep Gully Channel",
        "length_km": 18.2,
        "structures_count": 14
      },
      "geometry": {
        "type": "LineString",
        "coordinates": [
          [75.80, 24.80],
          [75.95, 24.75],
          [76.12, 24.68],
          [76.28, 24.58]
        ]
      }
    },
    {
      "type": "Feature",
      "id": "STR-08",
      "properties": {
        "id": "STR-08",
        "name": "Sukhomajri Hill Torrent (Choe)",
        "watershed_id": "WS-HR-SUK-08",
        "order": 2,
        "type": "Shivalik Choe (Torren)",
        "length_km": 6.8,
        "structures_count": 7
      },
      "geometry": {
        "type": "LineString",
        "coordinates": [
          [77.03, 30.82],
          [76.98, 30.78],
          [76.92, 30.73]
        ]
      }
    }
  ]
}
