{
  "type": "FeatureCollection",
  "name": "India_Watershed_Boundaries_Sample",
  "crs": { "type": "name", "properties": { "name": "urn:ogc:def:crs:OGC:1.3:CRS84" } },
  "features": [
    {
      "type": "Feature", "id": "WS-MH-GOD-01",
      "properties": { "id": "WS-MH-GOD-01", "name": "Ralegan-Siddhi Upper Godavari", "code": "4E2B5a", "basin": "Godavari Basin", "sub_basin": "Upper Godavari / Kukadi", "state": "Maharashtra", "district": "Ahmednagar", "taluka": "Parner", "area_sqkm": 86.4, "elevation_min": 580, "elevation_max": 795, "mean_slope_pct": 5.8, "annual_rainfall_mm": 520, "drainage_density_km_sqkm": 2.14, "priority_level": "High", "risk_score": 72, "status": "Monitored Active", "ndvi_mean": 0.58, "water_structures_count": 38, "geotagged_photos_count": 14, "lulc_breakdown": { "forest": 22.5, "agriculture": 52.8, "grassland": 11.2, "water": 6.4, "builtup": 3.6, "barren": 3.5 }, "soil_erosion_rate_t_ha_yr": 8.4, "groundwater_level_m_bgl": 6.8, "runoff_coefficient": 0.28, "key_observations": "Significant groundwater recovery following CCT and 14 masonry check dams along Kukadi tributaries.", "recommended_actions": "Desilting required on CD-03; reinforce gully plug at ridge R-12." },
      "geometry": { "type": "Polygon", "coordinates": [[[74.32, 19.01],[74.45, 19.08],[74.52, 19.04],[74.56, 18.94],[74.48, 18.88],[74.36, 18.91],[74.32, 19.01]]] }
    },
    {
      "type": "Feature", "id": "WS-MP-BTW-02",
      "properties": { "id": "WS-MP-BTW-02", "name": "Bundelkhand Betwa-Dhasan Catchment", "code": "2C1A3c", "basin": "Ganga Basin", "sub_basin": "Betwa-Dhasan Inter-riverine", "state": "Madhya Pradesh", "district": "Tikamgarh & Lalitpur", "taluka": "Niwari", "area_sqkm": 342.6, "elevation_min": 240, "elevation_max": 490, "mean_slope_pct": 7.2, "annual_rainfall_mm": 840, "drainage_density_km_sqkm": 2.85, "priority_level": "Critical", "risk_score": 88, "status": "Priority Action", "ndvi_mean": 0.42, "water_structures_count": 64, "geotagged_photos_count": 22, "lulc_breakdown": { "forest": 14.2, "agriculture": 48.0, "grassland": 16.5, "water": 4.8, "builtup": 5.5, "barren": 11.0 }, "soil_erosion_rate_t_ha_yr": 16.2, "groundwater_level_m_bgl": 14.5, "runoff_coefficient": 0.38, "key_observations": "Severe topsoil loss on granitic slopes; high sediment yield into Betwa reservoir.", "recommended_actions": "Construct 8 gabion structures; expedite rejuvenation of 6 percolation ponds." },
      "geometry": { "type": "Polygon", "coordinates": [[[78.45, 25.10],[78.75, 25.28],[78.98, 25.15],[79.05, 24.85],[78.78, 24.70],[78.50, 24.85],[78.45, 25.10]]] }
    },
    {
      "type": "Feature", "id": "WS-AP-PNR-03",
      "properties": { "id": "WS-AP-PNR-03", "name": "Ananthapuramu Drought-Prone Pennar Sub-basin", "code": "7A4C2d", "basin": "Pennar Basin", "sub_basin": "Chitravathi-Pennar", "state": "Andhra Pradesh", "district": "Ananthapuramu", "taluka": "Dharmavaram", "area_sqkm": 218.0, "elevation_min": 320, "elevation_max": 650, "mean_slope_pct": 4.6, "annual_rainfall_mm": 540, "drainage_density_km_sqkm": 1.92, "priority_level": "Critical", "risk_score": 85, "status": "Priority Action", "ndvi_mean": 0.36, "water_structures_count": 45, "geotagged_photos_count": 18, "lulc_breakdown": { "forest": 8.5, "agriculture": 58.2, "grassland": 14.8, "water": 3.2, "builtup": 4.1, "barren": 11.2 }, "soil_erosion_rate_t_ha_yr": 12.8, "groundwater_level_m_bgl": 18.2, "runoff_coefficient": 0.22, "key_observations": "Arid climate zone with severe groundwater depletion. Farm ponds provide supplemental irrigation.", "recommended_actions": "Implement 35 new Farm Ponds under PMKSY-WDC; line feeder channels." },
      "geometry": { "type": "Polygon", "coordinates": [[[77.40, 14.50],[77.72, 14.72],[77.92, 14.58],[77.85, 14.30],[77.60, 14.18],[77.35, 14.32],[77.40, 14.50]]] }
    },
    {
      "type": "Feature", "id": "WS-KA-CAU-04",
      "properties": { "id": "WS-KA-CAU-04", "name": "Cauvery Upper Catchment (Kabini-Shimsha)", "code": "3B2A1e", "basin": "Cauvery Basin", "sub_basin": "Shimsha Sub-basin", "state": "Karnataka", "district": "Mandya & Ramanagara", "taluka": "Maddur", "area_sqkm": 412.5, "elevation_min": 610, "elevation_max": 920, "mean_slope_pct": 6.1, "annual_rainfall_mm": 720, "drainage_density_km_sqkm": 2.45, "priority_level": "Moderate", "risk_score": 54, "status": "Monitored Active", "ndvi_mean": 0.64, "water_structures_count": 52, "geotagged_photos_count": 16, "lulc_breakdown": { "forest": 26.8, "agriculture": 54.4, "grassland": 8.2, "water": 5.6, "builtup": 3.8, "barren": 1.2 }, "soil_erosion_rate_t_ha_yr": 6.2, "groundwater_level_m_bgl": 7.4, "runoff_coefficient": 0.32, "key_observations": "Good vegetation canopy in upper ridges; tank cascades show siltation near Shimsha confluence.", "recommended_actions": "Desilt 4 cascade tanks; construct silt detention dams at upper micro-valleys." },
      "geometry": { "type": "Polygon", "coordinates": [[[76.85, 12.85],[77.15, 12.98],[77.38, 12.80],[77.30, 12.45],[77.02, 12.35],[76.78, 12.55],[76.85, 12.85]]] }
    },
    {
      "type": "Feature", "id": "WS-MP-NAR-05",
      "properties": { "id": "WS-MP-NAR-05", "name": "Narmada Upper Valley (Tawa Catchment)", "code": "5D3C1a", "basin": "Narmada Basin", "sub_basin": "Tawa River Sub-basin", "state": "Madhya Pradesh", "district": "Narmadapuram (Hoshangabad)", "taluka": "Itarsi", "area_sqkm": 520.0, "elevation_min": 290, "elevation_max": 880, "mean_slope_pct": 11.4, "annual_rainfall_mm": 1280, "drainage_density_km_sqkm": 3.10, "priority_level": "Moderate", "risk_score": 58, "status": "Monitored Active", "ndvi_mean": 0.72, "water_structures_count": 41, "geotagged_photos_count": 15, "lulc_breakdown": { "forest": 46.2, "agriculture": 38.5, "grassland": 5.1, "water": 6.8, "builtup": 2.2, "barren": 1.2 }, "soil_erosion_rate_t_ha_yr": 10.5, "groundwater_level_m_bgl": 5.6, "runoff_coefficient": 0.44, "key_observations": "Dense Satpura forest cover at upper reaches; high velocity runoff during monsoon.", "recommended_actions": "Deploy earthen bunding on agricultural foothills; stabilize banks with vetiver." },
      "geometry": { "type": "Polygon", "coordinates": [[[77.70, 22.65],[78.05, 22.78],[78.35, 22.58],[78.25, 22.25],[77.85, 22.15],[77.60, 22.38],[77.70, 22.65]]] }
    },
    {
      "type": "Feature", "id": "WS-OD-MAH-06",
      "properties": { "id": "WS-OD-MAH-06", "name": "Mahanadi Mid-Reach (Ib-Brahmani)", "code": "4H1B4b", "basin": "Mahanadi Basin", "sub_basin": "Ib River Catchment", "state": "Odisha", "district": "Sambalpur & Jharsuguda", "taluka": "Rengali", "area_sqkm": 380.0, "elevation_min": 170, "elevation_max": 540, "mean_slope_pct": 8.2, "annual_rainfall_mm": 1420, "drainage_density_km_sqkm": 2.90, "priority_level": "Low", "risk_score": 38, "status": "Monitored Stable", "ndvi_mean": 0.69, "water_structures_count": 48, "geotagged_photos_count": 12, "lulc_breakdown": { "forest": 39.0, "agriculture": 44.5, "grassland": 4.5, "water": 7.2, "builtup": 3.8, "barren": 1.0 }, "soil_erosion_rate_t_ha_yr": 5.8, "groundwater_level_m_bgl": 4.8, "runoff_coefficient": 0.42, "key_observations": "High post-monsoon water holding capacity; mine runoff buffered by wetland zones.", "recommended_actions": "Routine check dam maintenance; expand vegetative filter strips along coal corridor." },
      "geometry": { "type": "Polygon", "coordinates": [[[83.85, 21.75],[84.20, 21.90],[84.45, 21.70],[84.35, 21.35],[84.00, 21.25],[83.75, 21.45],[83.85, 21.75]]] }
    },
    {
      "type": "Feature", "id": "WS-RJ-CHM-07",
      "properties": { "id": "WS-RJ-CHM-07", "name": "Chambal Ravines Watershed (Hadoti Plateau)", "code": "2D2B1a", "basin": "Ganga Basin", "sub_basin": "Chambal Lower Reaches", "state": "Rajasthan", "district": "Kota & Jhalawar", "taluka": "Ramganj Mandi", "area_sqkm": 295.0, "elevation_min": 220, "elevation_max": 460, "mean_slope_pct": 6.8, "annual_rainfall_mm": 680, "drainage_density_km_sqkm": 3.40, "priority_level": "Critical", "risk_score": 91, "status": "Priority Action", "ndvi_mean": 0.38, "water_structures_count": 36, "geotagged_photos_count": 19, "lulc_breakdown": { "forest": 9.2, "agriculture": 55.4, "grassland": 12.0, "water": 4.1, "builtup": 3.8, "barren": 15.5 }, "soil_erosion_rate_t_ha_yr": 22.4, "groundwater_level_m_bgl": 16.5, "runoff_coefficient": 0.35, "key_observations": "Severe active gully erosion encroaching productive agricultural fields.", "recommended_actions": "Urgent masonry check dams and contour trenching in headward gully nodes." },
      "geometry": { "type": "Polygon", "coordinates": [[[75.75, 24.85],[76.10, 25.05],[76.35, 24.88],[76.25, 24.55],[75.90, 24.40],[75.68, 24.60],[75.75, 24.85]]] }
    },
    {
      "type": "Feature", "id": "WS-HR-SUK-08",
      "properties": { "id": "WS-HR-SUK-08", "name": "Sukhomajri Shivalik Foothills Model Watershed", "code": "1B1A4f", "basin": "Indus Basin", "sub_basin": "Ghaggar-Kalka Catchment", "state": "Haryana", "district": "Panchkula", "taluka": "Kalka", "area_sqkm": 42.8, "elevation_min": 450, "elevation_max": 890, "mean_slope_pct": 14.5, "annual_rainfall_mm": 1120, "drainage_density_km_sqkm": 3.80, "priority_level": "Low", "risk_score": 32, "status": "Model Watershed / Benchmark", "ndvi_mean": 0.74, "water_structures_count": 24, "geotagged_photos_count": 11, "lulc_breakdown": { "forest": 54.0, "agriculture": 32.5, "grassland": 6.5, "water": 4.5, "builtup": 1.8, "barren": 0.7 }, "soil_erosion_rate_t_ha_yr": 3.5, "groundwater_level_m_bgl": 5.2, "runoff_coefficient": 0.24, "key_observations": "Benchmark community watershed; check dams curtailed Sukhna Lake siltation by 90%.", "recommended_actions": "Maintenance of earthen spillways and community water distribution network." },
      "geometry": { "type": "Polygon", "coordinates": [[[76.88, 30.78],[76.98, 30.85],[77.06, 30.80],[77.02, 30.72],[76.92, 30.70],[76.88, 30.78]]] }
    },
    {
      "type": "Feature", "id": "WS-GJ-SAB-09",
      "properties": { "id": "WS-GJ-SAB-09", "name": "Sabarmati-Harnav Watershed", "code": "5A1B2c", "basin": "Sabarmati Basin", "sub_basin": "Harnav River Catchment", "state": "Gujarat", "district": "Sabarkantha", "taluka": "Khedbrahma", "area_sqkm": 265.4, "elevation_min": 190, "elevation_max": 480, "mean_slope_pct": 5.4, "annual_rainfall_mm": 740, "drainage_density_km_sqkm": 2.20, "priority_level": "High", "risk_score": 68, "status": "Monitored Active", "ndvi_mean": 0.49, "water_structures_count": 32, "geotagged_photos_count": 13, "lulc_breakdown": { "forest": 18.4, "agriculture": 58.6, "grassland": 9.2, "water": 5.2, "builtup": 4.4, "barren": 4.2 }, "soil_erosion_rate_t_ha_yr": 9.6, "groundwater_level_m_bgl": 12.0, "runoff_coefficient": 0.30, "key_observations": "Semi-arid plateau with seasonal flash floods. Check dam network provides essential recharge.", "recommended_actions": "Implement recharge shafts in farm ponds to inject monsoon surplus to aquifer." },
      "geometry": { "type": "Polygon", "coordinates": [[[72.95, 23.95],[73.25, 24.15],[73.45, 23.98],[73.35, 23.70],[73.05, 23.65],[72.90, 23.80],[72.95, 23.95]]] }
    },
    {
      "type": "Feature", "id": "WS-TN-VAI-10",
      "properties": { "id": "WS-TN-VAI-10", "name": "Vaigai-Gundar Drought-Resilient Watershed", "code": "7C2A3b", "basin": "Vaigai Basin", "sub_basin": "Upper Gundar Catchment", "state": "Tamil Nadu", "district": "Madurai & Virudhunagar", "taluka": "Usilampatti", "area_sqkm": 310.2, "elevation_min": 140, "elevation_max": 420, "mean_slope_pct": 4.2, "annual_rainfall_mm": 690, "drainage_density_km_sqkm": 2.10, "priority_level": "High", "risk_score": 75, "status": "Monitored Active", "ndvi_mean": 0.44, "water_structures_count": 44, "geotagged_photos_count": 17, "lulc_breakdown": { "forest": 12.0, "agriculture": 61.5, "grassland": 10.5, "water": 6.8, "builtup": 5.2, "barren": 4.0 }, "soil_erosion_rate_t_ha_yr": 11.2, "groundwater_level_m_bgl": 13.8, "runoff_coefficient": 0.25, "key_observations": "Traditional Ooranis show high water retention when supply channels are cleared.", "recommended_actions": "Desilt supply channels; establish community solar lift irrigation." },
      "geometry": { "type": "Polygon", "coordinates": [[[77.75, 9.90],[78.05, 10.10],[78.28, 9.95],[78.20, 9.65],[77.90, 9.55],[77.70, 9.70],[77.75, 9.90]]] }
    },
    {
      "type": "Feature", "id": "WS-UP-GAG-11",
      "properties": { "id": "WS-UP-GAG-11", "name": "Ganga Doab Upper Yamuna-Ganga Interfluve", "code": "1A1B2a", "basin": "Ganga Basin", "sub_basin": "Upper Doab", "state": "Uttar Pradesh", "district": "Muzaffarnagar & Meerut", "taluka": "Khatauli", "area_sqkm": 480.0, "elevation_min": 220, "elevation_max": 320, "mean_slope_pct": 2.1, "annual_rainfall_mm": 820, "drainage_density_km_sqkm": 1.80, "priority_level": "Moderate", "risk_score": 52, "status": "Monitored Active", "ndvi_mean": 0.62, "water_structures_count": 55, "geotagged_photos_count": 20, "lulc_breakdown": { "forest": 8.2, "agriculture": 72.4, "grassland": 5.6, "water": 6.8, "builtup": 5.5, "barren": 1.5 }, "soil_erosion_rate_t_ha_yr": 4.2, "groundwater_level_m_bgl": 8.5, "runoff_coefficient": 0.26, "key_observations": "Highly intensive double-crop agriculture; canal irrigation sustains food security.", "recommended_actions": "Rainwater harvesting ponds to recharge depleting alluvial aquifer; reduce canal seepage." },
      "geometry": { "type": "Polygon", "coordinates": [[[77.60, 29.50],[77.90, 29.65],[78.10, 29.50],[78.00, 29.25],[77.70, 29.20],[77.55, 29.38],[77.60, 29.50]]] }
    },
    {
      "type": "Feature", "id": "WS-WB-DVC-12",
      "properties": { "id": "WS-WB-DVC-12", "name": "Damodar Valley Catchment (Panchet Zone)", "code": "3C2B1a", "basin": "Ganga Basin", "sub_basin": "Damodar River Sub-basin", "state": "West Bengal / Jharkhand", "district": "Dhanbad & Hooghly", "taluka": "Joypur", "area_sqkm": 620.0, "elevation_min": 85, "elevation_max": 380, "mean_slope_pct": 5.4, "annual_rainfall_mm": 1350, "drainage_density_km_sqkm": 2.60, "priority_level": "High", "risk_score": 70, "status": "Monitored Active", "ndvi_mean": 0.55, "water_structures_count": 58, "geotagged_photos_count": 18, "lulc_breakdown": { "forest": 22.0, "agriculture": 46.0, "grassland": 8.0, "water": 9.5, "builtup": 9.0, "barren": 5.5 }, "soil_erosion_rate_t_ha_yr": 8.8, "groundwater_level_m_bgl": 6.2, "runoff_coefficient": 0.45, "key_observations": "Industrial mine drainage impacting riverine water quality; DVC reservoir sediment accumulation.", "recommended_actions": "Construct silt retention barriers upstream of Panchet reservoir." },
      "geometry": { "type": "Polygon", "coordinates": [[[86.40, 23.45],[86.75, 23.62],[87.00, 23.48],[86.90, 23.15],[86.55, 23.08],[86.30, 23.28],[86.40, 23.45]]] }
    },
    {
      "type": "Feature", "id": "WS-AS-BRA-13",
      "properties": { "id": "WS-AS-BRA-13", "name": "Brahmaputra Floodplain Barak Sub-basin", "code": "8A1C1b", "basin": "Brahmaputra Basin", "sub_basin": "Barak River Catchment", "state": "Assam", "district": "Cachar & Hailakandi", "taluka": "Silchar", "area_sqkm": 580.0, "elevation_min": 20, "elevation_max": 280, "mean_slope_pct": 3.8, "annual_rainfall_mm": 2800, "drainage_density_km_sqkm": 3.50, "priority_level": "Moderate", "risk_score": 55, "status": "Monitored Active", "ndvi_mean": 0.78, "water_structures_count": 38, "geotagged_photos_count": 14, "lulc_breakdown": { "forest": 35.0, "agriculture": 48.0, "grassland": 4.0, "water": 9.5, "builtup": 2.8, "barren": 0.7 }, "soil_erosion_rate_t_ha_yr": 14.5, "groundwater_level_m_bgl": 3.2, "runoff_coefficient": 0.55, "key_observations": "Flood-prone floodplain with high biomass; bank erosion major concern along Barak bends.", "recommended_actions": "Construct bio-engineering river bank protection with vetiver and bamboo revetments." },
      "geometry": { "type": "Polygon", "coordinates": [[[92.50, 24.50],[92.85, 24.72],[93.10, 24.55],[93.00, 24.20],[92.68, 24.12],[92.42, 24.32],[92.50, 24.50]]] }
    },
    {
      "type": "Feature", "id": "WS-KL-PER-14",
      "properties": { "id": "WS-KL-PER-14", "name": "Periyar Western Ghats Upper Catchment", "code": "9B1A3a", "basin": "West Flowing Rivers (Kerala)", "sub_basin": "Periyar River Catchment", "state": "Kerala", "district": "Idukki & Ernakulam", "taluka": "Thodupuzha", "area_sqkm": 365.0, "elevation_min": 300, "elevation_max": 1850, "mean_slope_pct": 18.5, "annual_rainfall_mm": 3200, "drainage_density_km_sqkm": 4.20, "priority_level": "Moderate", "risk_score": 48, "status": "Monitored Active", "ndvi_mean": 0.82, "water_structures_count": 28, "geotagged_photos_count": 12, "lulc_breakdown": { "forest": 58.0, "agriculture": 30.0, "grassland": 4.0, "water": 5.5, "builtup": 2.0, "barren": 0.5 }, "soil_erosion_rate_t_ha_yr": 18.2, "groundwater_level_m_bgl": 4.0, "runoff_coefficient": 0.62, "key_observations": "Dense shola forest buffer critical for Idukki reservoir catchment stability.", "recommended_actions": "Protect shola grassland-forest ecotone; restrict encroachment on slope >15%." },
      "geometry": { "type": "Polygon", "coordinates": [[[76.85, 10.05],[77.15, 10.25],[77.38, 10.12],[77.28, 9.78],[76.95, 9.68],[76.72, 9.88],[76.85, 10.05]]] }
    },
    {
      "type": "Feature", "id": "WS-RJ-LUN-15",
      "properties": { "id": "WS-RJ-LUN-15", "name": "Luni Basin Arid Zone Micro-watershed", "code": "6C1A2b", "basin": "Luni Basin (Arabian Sea Draining)", "sub_basin": "Sukri-Mitha Nadi", "state": "Rajasthan", "district": "Pali & Barmer", "taluka": "Bali", "area_sqkm": 415.0, "elevation_min": 180, "elevation_max": 610, "mean_slope_pct": 3.8, "annual_rainfall_mm": 340, "drainage_density_km_sqkm": 1.50, "priority_level": "Critical", "risk_score": 89, "status": "Priority Action", "ndvi_mean": 0.28, "water_structures_count": 42, "geotagged_photos_count": 16, "lulc_breakdown": { "forest": 5.0, "agriculture": 42.0, "grassland": 18.0, "water": 2.5, "builtup": 4.0, "barren": 28.5 }, "soil_erosion_rate_t_ha_yr": 18.5, "groundwater_level_m_bgl": 24.0, "runoff_coefficient": 0.18, "key_observations": "Hyper-arid zone; traditional kund and johad-based water harvesting critical for survival.", "recommended_actions": "Restore johads; install solar-powered groundwater monitoring." },
      "geometry": { "type": "Polygon", "coordinates": [[[73.10, 25.18],[73.45, 25.38],[73.70, 25.20],[73.58, 24.88],[73.22, 24.75],[72.98, 24.95],[73.10, 25.18]]] }
    },
    {
      "type": "Feature", "id": "WS-MH-KON-16",
      "properties": { "id": "WS-MH-KON-16", "name": "Konkan Coastal Watershed (Vashishti Basin)", "code": "5B3A1c", "basin": "West Flowing Rivers (Maharashtra)", "sub_basin": "Vashishti River", "state": "Maharashtra", "district": "Ratnagiri", "taluka": "Chiplun", "area_sqkm": 285.0, "elevation_min": 5, "elevation_max": 820, "mean_slope_pct": 16.2, "annual_rainfall_mm": 3400, "drainage_density_km_sqkm": 3.80, "priority_level": "Moderate", "risk_score": 56, "status": "Monitored Active", "ndvi_mean": 0.76, "water_structures_count": 36, "geotagged_photos_count": 13, "lulc_breakdown": { "forest": 44.0, "agriculture": 38.0, "grassland": 6.0, "water": 6.5, "builtup": 3.5, "barren": 2.0 }, "soil_erosion_rate_t_ha_yr": 21.0, "groundwater_level_m_bgl": 3.8, "runoff_coefficient": 0.60, "key_observations": "Laterite steep slopes with high intensity monsoon runoff; cashew and mango orchards.", "recommended_actions": "Construct hill-slope drains; plant bamboo on unstable laterite scarps." },
      "geometry": { "type": "Polygon", "coordinates": [[[73.42, 17.28],[73.68, 17.45],[73.88, 17.32],[73.78, 17.05],[73.52, 16.95],[73.30, 17.12],[73.42, 17.28]]] }
    },
    {
      "type": "Feature", "id": "WS-PB-SUT-17",
      "properties": { "id": "WS-PB-SUT-17", "name": "Punjab Sutlej-Beas Doab Watershed", "code": "1C1A3d", "basin": "Indus Basin", "sub_basin": "Sutlej-Beas Doab", "state": "Punjab", "district": "Ludhiana & Fatehgarh Sahib", "taluka": "Fatehgarh Sahib", "area_sqkm": 340.0, "elevation_min": 250, "elevation_max": 380, "mean_slope_pct": 1.5, "annual_rainfall_mm": 640, "drainage_density_km_sqkm": 1.40, "priority_level": "Moderate", "risk_score": 60, "status": "Monitored Active", "ndvi_mean": 0.65, "water_structures_count": 28, "geotagged_photos_count": 10, "lulc_breakdown": { "forest": 4.5, "agriculture": 80.5, "grassland": 3.0, "water": 4.8, "builtup": 6.5, "barren": 0.7 }, "soil_erosion_rate_t_ha_yr": 3.2, "groundwater_level_m_bgl": 12.5, "runoff_coefficient": 0.22, "key_observations": "Intensively irrigated wheat-rice belt with severe groundwater overextraction.", "recommended_actions": "Promote direct-seeded rice; incentivize crop diversification to reduce irrigation demand." },
      "geometry": { "type": "Polygon", "coordinates": [[[76.30, 30.60],[76.60, 30.75],[76.82, 30.60],[76.72, 30.32],[76.42, 30.22],[76.20, 30.42],[76.30, 30.60]]] }
    },
    {
      "type": "Feature", "id": "WS-TL-KRI-18",
      "properties": { "id": "WS-TL-KRI-18", "name": "Krishna-Tungabhadra Middle Reaches", "code": "6A3B2c", "basin": "Krishna Basin", "sub_basin": "Tungabhadra Sub-basin", "state": "Telangana", "district": "Wanaparthy & Narayanpet", "taluka": "Achampet", "area_sqkm": 388.0, "elevation_min": 290, "elevation_max": 620, "mean_slope_pct": 5.8, "annual_rainfall_mm": 760, "drainage_density_km_sqkm": 2.30, "priority_level": "High", "risk_score": 72, "status": "Monitored Active", "ndvi_mean": 0.46, "water_structures_count": 48, "geotagged_photos_count": 16, "lulc_breakdown": { "forest": 12.5, "agriculture": 62.0, "grassland": 12.0, "water": 5.0, "builtup": 4.5, "barren": 4.0 }, "soil_erosion_rate_t_ha_yr": 10.8, "groundwater_level_m_bgl": 11.2, "runoff_coefficient": 0.30, "key_observations": "Red sandy soils susceptible to rill erosion; tank cascade systems need reinforcement.", "recommended_actions": "Tank chain cascade restoration with silt trap channels; support micro-irrigation." },
      "geometry": { "type": "Polygon", "coordinates": [[[78.08, 16.38],[78.38, 16.55],[78.60, 16.40],[78.50, 16.10],[78.18, 16.00],[77.95, 16.18],[78.08, 16.38]]] }
    },
    {
      "type": "Feature", "id": "WS-JH-SON-19",
      "properties": { "id": "WS-SON-19", "name": "Son River Upper Chhota Nagpur Catchment", "code": "3D1B2a", "basin": "Ganga Basin", "sub_basin": "Son River Sub-basin", "state": "Jharkhand", "district": "Garhwa & Palamu", "taluka": "Bishrampur", "area_sqkm": 420.0, "elevation_min": 260, "elevation_max": 680, "mean_slope_pct": 9.2, "annual_rainfall_mm": 1080, "drainage_density_km_sqkm": 2.80, "priority_level": "High", "risk_score": 74, "status": "Monitored Active", "ndvi_mean": 0.52, "water_structures_count": 44, "geotagged_photos_count": 15, "lulc_breakdown": { "forest": 28.0, "agriculture": 50.0, "grassland": 9.0, "water": 5.0, "builtup": 4.5, "barren": 3.5 }, "soil_erosion_rate_t_ha_yr": 12.0, "groundwater_level_m_bgl": 9.5, "runoff_coefficient": 0.36, "key_observations": "Lateritic plateau with sal forest patches under mining pressure; Son is a key Ganga tributary.", "recommended_actions": "Afforestation of degraded mining fringe; construct gully plugs in 1st order streams." },
      "geometry": { "type": "Polygon", "coordinates": [[[83.90, 24.12],[84.22, 24.32],[84.45, 24.18],[84.35, 23.85],[84.02, 23.75],[83.78, 23.95],[83.90, 24.12]]] }
    },
    {
      "type": "Feature", "id": "WS-HP-BEA-20",
      "properties": { "id": "WS-HP-BEA-20", "name": "Beas Upper Himachal Alpine Watershed", "code": "1A2B1c", "basin": "Indus Basin", "sub_basin": "Beas River Upper Reaches", "state": "Himachal Pradesh", "district": "Kullu & Mandi", "taluka": "Manali", "area_sqkm": 280.0, "elevation_min": 1840, "elevation_max": 5800, "mean_slope_pct": 28.5, "annual_rainfall_mm": 1650, "drainage_density_km_sqkm": 3.20, "priority_level": "Low", "risk_score": 30, "status": "Monitored Stable", "ndvi_mean": 0.60, "water_structures_count": 18, "geotagged_photos_count": 9, "lulc_breakdown": { "forest": 32.0, "agriculture": 18.0, "grassland": 22.0, "water": 8.0, "builtup": 2.0, "barren": 18.0 }, "soil_erosion_rate_t_ha_yr": 22.0, "groundwater_level_m_bgl": 2.5, "runoff_coefficient": 0.58, "key_observations": "Glacier-fed upper watershed; permafrost thaw increasing sediment transport to Pandoh Dam.", "recommended_actions": "Snow gauging station installation; slope stabilization above treeline." },
      "geometry": { "type": "Polygon", "coordinates": [[[77.00, 32.10],[77.35, 32.30],[77.58, 32.15],[77.48, 31.82],[77.15, 31.72],[76.92, 31.92],[77.00, 32.10]]] }
    },
    {
      "type": "Feature", "id": "WS-CG-IND-21",
      "properties": { "id": "WS-CG-IND-21", "name": "Chhattisgarh Indravati Sub-basin Watershed", "code": "6H2B1a", "basin": "Godavari Basin", "sub_basin": "Indravati River", "state": "Chhattisgarh", "district": "Bastar & Narayanpur", "taluka": "Kondagaon", "area_sqkm": 510.0, "elevation_min": 420, "elevation_max": 1180, "mean_slope_pct": 10.5, "annual_rainfall_mm": 1520, "drainage_density_km_sqkm": 3.00, "priority_level": "Low", "risk_score": 36, "status": "Monitored Stable", "ndvi_mean": 0.80, "water_structures_count": 32, "geotagged_photos_count": 11, "lulc_breakdown": { "forest": 62.0, "agriculture": 28.0, "grassland": 4.0, "water": 4.0, "builtup": 1.5, "barren": 0.5 }, "soil_erosion_rate_t_ha_yr": 7.5, "groundwater_level_m_bgl": 4.5, "runoff_coefficient": 0.48, "key_observations": "Dense tribal forest area; Indravati headwaters nationally significant biodiversity hotspot.", "recommended_actions": "Community-led joint forest management; eco-monitoring of headwater springs." },
      "geometry": { "type": "Polygon", "coordinates": [[[81.65, 19.60],[82.00, 19.80],[82.25, 19.62],[82.15, 19.28],[81.80, 19.18],[81.55, 19.38],[81.65, 19.60]]] }
    },
    {
      "type": "Feature", "id": "WS-GJ-MAH-22",
      "properties": { "id": "WS-GJ-MAH-22", "name": "Mahi River Middle Reaches Gujarat", "code": "5C2A1b", "basin": "Mahi Basin", "sub_basin": "Mahi-Panam Catchment", "state": "Gujarat", "district": "Panchmahal & Vadodara", "taluka": "Godhra", "area_sqkm": 420.0, "elevation_min": 45, "elevation_max": 480, "mean_slope_pct": 4.5, "annual_rainfall_mm": 820, "drainage_density_km_sqkm": 2.05, "priority_level": "Moderate", "risk_score": 58, "status": "Monitored Active", "ndvi_mean": 0.50, "water_structures_count": 38, "geotagged_photos_count": 13, "lulc_breakdown": { "forest": 16.5, "agriculture": 60.5, "grassland": 8.5, "water": 5.8, "builtup": 5.2, "barren": 3.5 }, "soil_erosion_rate_t_ha_yr": 8.2, "groundwater_level_m_bgl": 10.5, "runoff_coefficient": 0.28, "key_observations": "Kadana reservoir downstream; upper catchment tribal belt with traditional water harvesting.", "recommended_actions": "Restore tribal vav/step-well systems; construct check dams in upper Panam sub-basin." },
      "geometry": { "type": "Polygon", "coordinates": [[[73.55, 22.65],[73.85, 22.82],[74.08, 22.68],[73.98, 22.35],[73.65, 22.25],[73.42, 22.45],[73.55, 22.65]]] }
    },
    {
      "type": "Feature", "id": "WS-UP-BET-23",
      "properties": { "id": "WS-UP-BET-23", "name": "Betwa Bundelkhand Uttar Pradesh Section", "code": "2E1A2b", "basin": "Ganga Basin", "sub_basin": "Betwa River Jhansi Reach", "state": "Uttar Pradesh", "district": "Jhansi & Lalitpur", "taluka": "Prithvipur", "area_sqkm": 360.0, "elevation_min": 210, "elevation_max": 420, "mean_slope_pct": 5.8, "annual_rainfall_mm": 720, "drainage_density_km_sqkm": 2.50, "priority_level": "High", "risk_score": 76, "status": "Monitored Active", "ndvi_mean": 0.44, "water_structures_count": 40, "geotagged_photos_count": 14, "lulc_breakdown": { "forest": 11.5, "agriculture": 56.0, "grassland": 14.0, "water": 5.0, "builtup": 5.0, "barren": 8.5 }, "soil_erosion_rate_t_ha_yr": 13.8, "groundwater_level_m_bgl": 15.2, "runoff_coefficient": 0.32, "key_observations": "Ravine-prone landscape; traditional tanks being revived under Jal Shakti Abhiyan.", "recommended_actions": "Desilt 12 traditional tanks; construct earthen stop dams across 3rd-order streams." },
      "geometry": { "type": "Polygon", "coordinates": [[[78.60, 25.38],[78.90, 25.55],[79.12, 25.40],[79.02, 25.08],[78.70, 24.98],[78.48, 25.18],[78.60, 25.38]]] }
    },
    {
      "type": "Feature", "id": "WS-MH-VID-24",
      "properties": { "id": "WS-MH-VID-24", "name": "Vidarbha Wainganga Catchment", "code": "4F2A1b", "basin": "Godavari Basin", "sub_basin": "Wainganga River", "state": "Maharashtra", "district": "Gondia & Gadchiroli", "taluka": "Tirora", "area_sqkm": 495.0, "elevation_min": 240, "elevation_max": 680, "mean_slope_pct": 6.8, "annual_rainfall_mm": 1250, "drainage_density_km_sqkm": 2.70, "priority_level": "Moderate", "risk_score": 52, "status": "Monitored Active", "ndvi_mean": 0.66, "water_structures_count": 42, "geotagged_photos_count": 14, "lulc_breakdown": { "forest": 36.0, "agriculture": 48.5, "grassland": 5.0, "water": 5.8, "builtup": 3.2, "barren": 1.5 }, "soil_erosion_rate_t_ha_yr": 7.2, "groundwater_level_m_bgl": 7.8, "runoff_coefficient": 0.40, "key_observations": "Teak-rich forest catchment; paddy cultivation on valley bottoms with moderate erosion risk.", "recommended_actions": "Vegetative bunding on mid-slopes; community forest patrol for ridge protection." },
      "geometry": { "type": "Polygon", "coordinates": [[[79.80, 21.30],[80.12, 21.48],[80.35, 21.32],[80.25, 20.98],[79.92, 20.88],[79.70, 21.08],[79.80, 21.30]]] }
    },
    {
      "type": "Feature", "id": "WS-MN-BRA-25",
      "properties": { "id": "WS-MN-BRA-25", "name": "Manipur Imphal River Brahmaputra Tributary", "code": "9C1A2a", "basin": "Brahmaputra Basin", "sub_basin": "Imphal-Iril Catchment", "state": "Manipur", "district": "Imphal East & West", "taluka": "Imphal", "area_sqkm": 220.0, "elevation_min": 780, "elevation_max": 2400, "mean_slope_pct": 22.5, "annual_rainfall_mm": 1580, "drainage_density_km_sqkm": 3.60, "priority_level": "High", "risk_score": 68, "status": "Monitored Active", "ndvi_mean": 0.70, "water_structures_count": 22, "geotagged_photos_count": 10, "lulc_breakdown": { "forest": 45.0, "agriculture": 36.0, "grassland": 7.0, "water": 5.0, "builtup": 5.0, "barren": 2.0 }, "soil_erosion_rate_t_ha_yr": 16.8, "groundwater_level_m_bgl": 5.5, "runoff_coefficient": 0.52, "key_observations": "Highly erosion-prone steep slopes; Loktak Lake downstream wetland internationally recognized (Ramsar).", "recommended_actions": "Slope stabilization with indigenous agroforestry species; check dam cascade on hill streams." },
      "geometry": { "type": "Polygon", "coordinates": [[[93.82, 24.68],[94.08, 24.85],[94.28, 24.70],[94.18, 24.40],[93.90, 24.30],[93.70, 24.50],[93.82, 24.68]]] }
    },
    {
      "type": "Feature", "id": "WS-SK-RAN-26",
      "properties": { "id": "WS-SK-RAN-26", "name": "Sikkim Rangit-Teesta Alpine Watershed", "code": "9A1B1a", "basin": "Brahmaputra Basin", "sub_basin": "Teesta-Rangit Catchment", "state": "Sikkim", "district": "West Sikkim & South Sikkim", "taluka": "Jorethang", "area_sqkm": 195.0, "elevation_min": 360, "elevation_max": 5600, "mean_slope_pct": 35.2, "annual_rainfall_mm": 2800, "drainage_density_km_sqkm": 4.80, "priority_level": "Moderate", "risk_score": 60, "status": "Monitored Active", "ndvi_mean": 0.73, "water_structures_count": 16, "geotagged_photos_count": 8, "lulc_breakdown": { "forest": 48.0, "agriculture": 20.0, "grassland": 14.0, "water": 5.0, "builtup": 2.0, "barren": 11.0 }, "soil_erosion_rate_t_ha_yr": 28.5, "groundwater_level_m_bgl": 2.2, "runoff_coefficient": 0.65, "key_observations": "Glacial lake outburst flood (GLOF) risk; terrace agriculture on extreme slopes.", "recommended_actions": "GLOF early warning monitoring; terraced field bund reinforcement against landslide." },
      "geometry": { "type": "Polygon", "coordinates": [[[88.18, 27.22],[88.45, 27.40],[88.65, 27.25],[88.55, 26.95],[88.25, 26.85],[88.05, 27.05],[88.18, 27.22]]] }
    },
    {
      "type": "Feature", "id": "WS-KA-KRI-27",
      "properties": { "id": "WS-KA-KRI-27", "name": "Karnataka Deccan Krishna Plateau Watershed", "code": "6B2A1d", "basin": "Krishna Basin", "sub_basin": "Bheema River Catchment", "state": "Karnataka", "district": "Yadgir & Kalaburagi (Gulbarga)", "taluka": "Shorapur", "area_sqkm": 380.0, "elevation_min": 350, "elevation_max": 620, "mean_slope_pct": 3.5, "annual_rainfall_mm": 580, "drainage_density_km_sqkm": 1.80, "priority_level": "Critical", "risk_score": 82, "status": "Priority Action", "ndvi_mean": 0.38, "water_structures_count": 38, "geotagged_photos_count": 14, "lulc_breakdown": { "forest": 6.0, "agriculture": 65.0, "grassland": 14.5, "water": 3.5, "builtup": 5.0, "barren": 6.0 }, "soil_erosion_rate_t_ha_yr": 11.5, "groundwater_level_m_bgl": 18.5, "runoff_coefficient": 0.22, "key_observations": "Drought-prone Hyderabad-Karnataka region; black cotton soil cracking reduces runoff harvesting.", "recommended_actions": "Broad-based trench and farm pond programme; promote kharif pulse crops." },
      "geometry": { "type": "Polygon", "coordinates": [[[76.62, 16.70],[76.92, 16.88],[77.15, 16.72],[77.05, 16.40],[76.72, 16.30],[76.50, 16.50],[76.62, 16.70]]] }
    },
    {
      "type": "Feature", "id": "WS-OR-SUI-28",
      "properties": { "id": "WS-OR-SUI-28", "name": "Subarnarekha River Orissa-Jharkhand Catchment", "code": "4G1B2a", "basin": "Subarnarekha Basin", "sub_basin": "Upper Subarnarekha", "state": "Jharkhand", "district": "Singhbhum & Seraikela", "taluka": "Baharagora", "area_sqkm": 290.0, "elevation_min": 60, "elevation_max": 650, "mean_slope_pct": 7.5, "annual_rainfall_mm": 1450, "drainage_density_km_sqkm": 2.90, "priority_level": "Moderate", "risk_score": 58, "status": "Monitored Active", "ndvi_mean": 0.60, "water_structures_count": 30, "geotagged_photos_count": 11, "lulc_breakdown": { "forest": 30.0, "agriculture": 52.0, "grassland": 7.0, "water": 5.5, "builtup": 3.5, "barren": 2.0 }, "soil_erosion_rate_t_ha_yr": 9.8, "groundwater_level_m_bgl": 7.2, "runoff_coefficient": 0.40, "key_observations": "Mining-affected catchment; laterite forest provides stabilising root mat on upper slopes.", "recommended_actions": "Revegetate mine-waste dumps; install silt arrester bunds at mine outlet drains." },
      "geometry": { "type": "Polygon", "coordinates": [[[85.95, 22.55],[86.25, 22.72],[86.48, 22.57],[86.38, 22.25],[86.05, 22.15],[85.82, 22.35],[85.95, 22.55]]] }
    }
  ]
}
